DMSP 5D-3 F16 (USA 172)
1 28054U 03048A   25309.30009259  .00000166  00000+0  11063-3 0  9997
2 28054  99.0081 326.4559 0008090  65.2609 104.4769 14.14403235137837
METEOSAT-9 (MSG-2)
1 28912U 05049B   25308.90157859  .00000137  00000+0  00000+0 0  9991
2 28912   8.8483  56.3208 0003188 182.2106 176.1215  1.00271814  4752
DMSP 5D-3 F17 (USA 191)
1 29522U 06050A   25309.29135438  .00000212  00000+0  13229-3 0  9999
2 29522  98.7406 315.4574 0009749 341.4237  18.6580 14.14894344980757
FENGYUN 3A
1 32958U 08026A   25309.25707835  .00000142  00000+0  87946-4 0  9993
2 32958  98.6633 249.5848 0009704  56.8747 303.3360 14.19495641903634
GOES 14
1 35491U 09033A   25309.27595683 -.00000055  00000+0  00000+0 0  9990
2 35491   1.0982  85.8270 0004226 135.2057 174.6377  1.00271466  4344
DMSP 5D-3 F18 (USA 210)
1 35951U 09057A   25309.17198284  .00000277  00000+0  16684-3 0  9996
2 35951  98.8790 285.7690 0011183 162.2625 197.8940 14.14737118827913
EWS-G2 (GOES 15)
1 36411U 10008A   25308.93169854  .00000047  00000+0  00000+0 0  9996
2 36411   0.7145  85.8189 0006411 157.2458 198.4499  1.00275661 57382
COMS 1
1 36744U 10032A   25308.95725190 -.00000330  00000+0  00000+0 0  9991
2 36744   4.2474  78.3902 0001011 152.3827 286.4651  1.00270575 48840
FENGYUN 3B
1 37214U 10059A   25309.27659846  .00000124  00000+0  87371-4 0  9994
2 37214  98.9965 348.9819 0023122 100.9719  32.0415 14.14773565775764
SUOMI NPP
1 37849U 11061A   25309.33612794  .00000111  00000+0  73413-4 0  9998
2 37849  98.7710 247.0250 0000315 220.8459 139.2693 14.19538535726680
METEOSAT-10 (MSG-3)
1 38552U 12035B   25309.10662830  .00000007  00000+0  00000+0 0  9994
2 38552   4.1373  61.7892 0000470 168.1754 213.2575  1.00267295 48615
METOP-B
1 38771U 12049A   25309.27350415  .00000172  00000+0  98791-4 0  9995
2 38771  98.6855 359.8570 0001233 266.8742  93.2294 14.21386480681450
INSAT-3D
1 39216U 13038B   25308.98954104 -.00000327  00000+0  00000+0 0  9995
2 39216   1.3430  85.4304 0001901 144.6481 300.1222  1.00266318 44833
FENGYUN 3C
1 39260U 13052A   25309.28588197  .00000150  00000+0  97347-4 0  9997
2 39260  98.4723 288.8010 0013843 311.3439  48.6544 14.15677813626889
METEOR-M 2
1 40069U 14037A   25309.29853808  .00000188  00000+0  10547-3 0  9992
2 40069  98.4861 288.3257 0005286 338.7984  21.2974 14.21363382587519
HIMAWARI-8
1 40267U 14060A   25308.92047204 -.00000263  00000+0  00000+0 0  9996
2 40267   0.0442 104.2321 0001174 147.9011 264.3235  1.00271545 40510
FENGYUN 2G
1 40367U 14090A   25308.95650312 -.00000288  00000+0  00000+0 0  9990
2 40367   5.0688  75.5329 0002788 185.0652 227.6485  1.00279954 39757
METEOSAT-11 (MSG-4)
1 40732U 15034A   25309.10844831  .00000075  00000+0  00000+0 0  9997
2 40732   2.6398  72.0878 0000578  95.6414 285.2231  1.00268933  4972
ELEKTRO-L 2
1 41105U 15074A   25309.17509532 -.00000103  00000+0  00000+0 0  9992
2 41105   6.1276  73.2711 0003580 186.8999 193.0823  1.00271089 36263
INSAT-3DR
1 41752U 16054A   25309.02753084 -.00000065  00000+0  00000+0 0  9993
2 41752   0.0844  85.6479 0013728 180.2101 222.5914  1.00271143 33572
HIMAWARI-9
1 41836U 16064A   25308.92047204 -.00000262  00000+0  00000+0 0  9994
2 41836   0.0059 358.8889 0001289 238.5584 279.1281  1.00270934 32968
GOES 16
1 41866U 16071A   25309.31182819 -.00000079  00000+0  00000+0 0  9997
2 41866   0.0780  78.4526 0003167 163.7943 170.1491  1.00271290 32857
FENGYUN 4A
1 41882U 16077A   25309.20247262 -.00000344  00000+0  00000+0 0  9998
2 41882   1.7504  82.7185 0005072 152.6650   5.9521  1.00275967 32680
CYGFM05
1 41884U 16078A   25309.23820171  .00019188  00000+0  38479-3 0  9990
2 41884  34.9601 291.7523 0010861 201.0871 158.9404 15.45708908493952
CYGFM04
1 41885U 16078B   25309.18930236  .00020414  00000+0  37913-3 0  9995
2 41885  34.9353 267.8126 0010427 228.3266 131.6563 15.47914224494113
CYGFM02
1 41886U 16078C   25309.22340355  .00023936  00000+0  42089-3 0  9990
2 41886  34.9440 266.4461 0011955 225.7585 134.2156 15.49427670494247
CYGFM01
1 41887U 16078D   25309.24373334  .00020461  00000+0  40284-3 0  9991
2 41887  34.9432 294.3209 0010239 193.3897 166.6553 15.46238851493897
CYGFM08
1 41888U 16078E   25309.19842383  .00021472  00000+0  40659-3 0  9990
2 41888  34.9462 278.0242 0012363 214.5565 145.4353 15.47327754494116
CYGFM07
1 41890U 16078G   25309.21414925  .00022363  00000+0  41591-3 0  9999
2 41890  34.9478 267.1033 0010812 232.8085 127.1650 15.47858084494134
CYGFM03
1 41891U 16078H   25309.24155694  .00021909  00000+0  40880-3 0  9993
2 41891  34.9434 268.8222 0009850 221.4897 138.5077 15.47778082494116
FENGYUN 3D
1 43010U 17072A   25309.24398014  .00000119  00000+0  78053-4 0  9992
2 43010  98.9835 275.0029 0001414  10.5580 349.5625 14.19665881413210
NOAA 20 (JPSS-1)
1 43013U 17073A   25309.28034540  .00000117  00000+0  76504-4 0  9998
2 43013  98.7536 245.9981 0001199 139.8306 220.2959 14.19510032412708
GOES 17
1 43226U 18022A   25309.13478203 -.00000171  00000+0  00000+0 0  9995
2 43226   0.3579  89.9129 0003221 168.9426 104.8085  1.00271872 28177
FENGYUN 2H
1 43491U 18050A   25309.05098802 -.00000116  00000+0  00000+0 0  9993
2 43491   2.4497  81.7388 0002789 151.6349 268.7238  1.00273895 27199
METOP-C
1 43689U 18087A   25309.30492010  .00000179  00000+0  10188-3 0  9999
2 43689  98.6982   7.6380 0002218  99.5316 260.6112 14.21489949363027
GEO-KOMPSAT-2A
1 43823U 18100A   25308.91795869  .00000000  00000+0  00000+0 0  9990
2 43823   0.0211  63.0724 0000896 108.0347 332.0120  1.00268756 25388
METEOR-M2 2
1 44387U 19038A   25309.29334076  .00000202  00000+0  10722-3 0  9998
2 44387  98.8933 288.5709 0000779   2.5047 357.6135 14.24266404329421
ARKTIKA-M 1
1 47719U 21016A   25308.19556712  .00000022  00000+0  00000+0 0  9994
2 47719  63.1764  89.2719 7182909 268.9712  15.8942  2.00617155 34276
FENGYUN 3E
1 49008U 21062A   25309.32611647  .00000050  00000+0  44407-4 0  9998
2 49008  98.7479 310.2896 0002149  42.4410 317.6932 14.19872230224812
GOES 18
1 51850U 22021A   25309.26511302  .00000108  00000+0  00000+0 0  9992
2 51850   0.0536  90.9680 0000818 181.0419  91.1965  1.00271314  4349
NOAA 21 (JPSS-2)
1 54234U 22150A   25309.24491947  .00000104  00000+0  70132-4 0  9998
2 54234  98.7399 246.0322 0002635  97.5727 262.5749 14.19580762154779
METEOSAT-12 (MTG-I1)
1 54743U 22170C   25309.17786867  .00000004  00000+0  00000+0 0  9996
2 54743   0.6807  25.1717 0001479 191.4593 251.7663  1.00268793 10739
TIANMU-1 03
1 55973U 23039A   25309.33352472  .00016574  00000+0  42587-3 0  9995
2 55973  97.5107 110.9856 0003633 172.4345 187.6956 15.39362800146304
TIANMU-1 04
1 55974U 23039B   25309.25578475  .00016212  00000+0  41249-3 0  9993
2 55974  97.5039 110.1132 0004454 171.3916 188.7407 15.39665809146298
TIANMU-1 05
1 55975U 23039C   25309.30618419  .00016105  00000+0  41448-3 0  9995
2 55975  97.5085 110.6546 0003086 193.5627 166.5536 15.39323174146281
TIANMU-1 06
1 55976U 23039D   25309.25928414  .00015774  00000+0  40073-3 0  9993
2 55976  97.5096 111.0414 0003536 189.4876 170.6303 15.39724188146292
FENGYUN 3G
1 56232U 23055A   25309.28143299  .00032713  00000+0  51332-3 0  9992
2 56232  49.9950  60.6186 0020450 334.4198  25.5755 15.53090966145201
METEOR-M2 3
1 57166U 23091A   25309.31137420  .00000033  00000+0  33411-4 0  9991
2 57166  98.6433   3.4940 0005081  99.8371 260.3382 14.24018875122651
TIANMU-1 07
1 57399U 23101A   25309.25968663  .00007283  00000+0  27526-3 0  9998
2 57399  97.2933 359.9467 0003651 185.7989 174.3209 15.27267789127430
TIANMU-1 08
1 57400U 23101B   25309.29177800  .00008137  00000+0  30724-3 0  9993
2 57400  97.2922 359.7828 0005367 199.0611 161.0429 15.27256489127438
TIANMU-1 09
1 57401U 23101C   25309.27895999  .00008290  00000+0  31295-3 0  9992
2 57401  97.2878 359.3044 0004658 195.9072 164.2022 15.27259722127430
TIANMU-1 10
1 57402U 23101D   25309.31294678  .00008066  00000+0  30458-3 0  9996
2 57402  97.2958   0.1478 0006372 201.0718 159.0260 15.27248629127433
FENGYUN 3F
1 57490U 23111A   25309.31343928  .00000111  00000+0  73104-4 0  9996
2 57490  98.7126  18.2031 0001224  76.6712 283.4601 14.19878000117093
ARKTIKA-M 2
1 58584U 23198A   25300.47014159  .00000154  00000+0  00000+0 0  9992
2 58584  63.2270 179.9212 6863194 268.2851  18.8164  2.00598966 13650
TIANMU-1 11
1 58645U 23205A   25309.32820023  .00006745  00000+0  28149-3 0  9997
2 58645  97.3639 329.6201 0011323  77.4124 282.8379 15.23928066103392
TIANMU-1 12
1 58646U 23205B   25309.28711534  .00006963  00000+0  29152-3 0  9996
2 58646  97.3626 329.3969 0009397  65.2744 294.9470 15.23823694103373
TIANMU-1 13
1 58647U 23205C   25309.32093933  .00006698  00000+0  28052-3 0  9991
2 58647  97.3655 329.6164 0009286  48.7557 311.4479 15.23829533103373
TIANMU-1 14
1 58648U 23205D   25309.30396912  .00006147  00000+0  25775-3 0  9991
2 58648  97.3586 328.9832 0010232  51.6977 308.5179 15.23815540103370
TIANMU-1 19
1 58660U 23208A   25309.27016104  .00010930  00000+0  41679-3 0  9992
2 58660  97.4386  60.4135 0005949  40.9324 319.2360 15.26846469103102
TIANMU-1 20
1 58661U 23208B   25309.28592707  .00009248  00000+0  34040-3 0  9996
2 58661  97.4323  60.8400 0008419  47.0680 313.1265 15.28044893103178
TIANMU-1 21
1 58662U 23208C   25309.27904001  .00012325  00000+0  42138-3 0  9997
2 58662  97.4371  62.5789 0007801  43.1351 317.0499 15.30388971103260
TIANMU-1 22
1 58663U 23208D   25309.26473022  .00010149  00000+0  38942-3 0  9991
2 58663  97.4379  60.4824 0004995  64.6494 295.5261 15.26664916103115
TIANMU-1 15
1 58700U 24004A   25309.30301601  .00007260  00000+0  30292-3 0  9996
2 58700  97.4642 130.9204 0007721  67.0028 293.2023 15.23943652101646
TIANMU-1 16
1 58701U 24004B   25309.28330366  .00007194  00000+0  29973-3 0  9994
2 58701  97.4580 130.3306 0008083  71.3935 288.8179 15.23994659101647
TIANMU-1 17
1 58702U 24004C   25309.33341521  .00007434  00000+0  31200-3 0  9999
2 58702  97.4614 130.7739 0006205  67.0641 293.1250 15.23745978101647
TIANMU-1 18
1 58703U 24004D   25309.31663322  .00007330  00000+0  30766-3 0  9995
2 58703  97.4631 130.9440 0005579  66.9646 293.2179 15.23751864101646
INSAT-3DS
1 58990U 24033A   25308.40940513 -.00000143  00000+0  00000+0 0  9994
2 58990   0.1033  84.6908 0001660 141.4754  47.2490  1.00270595 44816
METEOR-M2 4
1 59051U 24039A   25309.28236681  .00000039  00000+0  37092-4 0  9999
2 59051  98.6706 266.7897 0008155  96.3149 263.8958 14.22392139 87433
GOES 19
1 60133U 24119A   25309.28936875 -.00000237  00000+0  00000+0 0  9998
2 60133   0.0010  26.3793 0001285 254.4254 152.9730  1.00269423  4714
FENGYUN 3H
1 65815U 25219A   25309.16967082  .00000120  00000+0  76987-4 0  9995
2 65815  98.6520 249.5876 0001282  60.8816 299.2489 14.19887910  5590